ONEWEB-0456             
1 51646U 22012AA  24302.07496784 -.00000193  00000+0 -58883-3 0  9994
2 51646  87.8910 155.1206 0001717  78.6516 281.4804 13.10367589132439
ONEWEB-0457             
1 51647U 22012AB  24302.05174685  .00000810  00000+0  22847-2 0  9990
2 51647  87.8921 155.1598 0001291  79.4100 280.7173 13.10372314132445
ONEWEB-0458             
1 51648U 22012AC  24302.53145768 -.00000178  00000+0 -54570-3 0  9992
2 51648  87.8900 155.0804 0001591  86.1900 273.9409 13.10370389132466
ONEWEB-0461             
1 51649U 22012AD  24302.14297411  .00000060  00000+0  12201-3 0  9996
2 51649  87.9066 124.7930 0001485  87.1301 273.0000 13.17647997136553
ONEWEB-0463             
1 51650U 22012AE  24301.97254735  .00000920  00000+0  23361-2 0  9993
2 51650  87.9075 124.8801 0001571  90.9428 269.1884 13.17657633136320
ONEWEB-0464             
1 51651U 22012AF  24301.99363993  .00000006  00000+0 -19837-4 0  9994
2 51651  87.8923 155.1767 0001906  77.3799 282.7541 13.10369163132410
ONEWEB-0468             
1 51652U 22012AG  24302.30570658 -.00000228  00000+0 -69042-3 0  9998
2 51652  87.8920 155.1071 0001572  80.2655 279.8650 13.10371347132425
ONEWEB-0473             
1 51653U 22012AH  24301.98534267  .00000455  00000+0  12678-2 0  9990
2 51653  87.8922 155.1741 0001612  84.6608 275.4703 13.10371237132398
ONEWEB-0474             
1 51654U 22012AJ  24302.35884028  .00001337  00000+0  37923-2 0  9996
2 51654  87.8914 155.0848 0001970  75.0147 285.1198 13.10367999132426
ONEWEB-0475             
1 51655U 22012AK  24301.90843621  .00000111  00000+0  25210-3 0  9997
2 51655  87.9073 124.8723 0002315 102.3380 257.8011 13.17650740135033
ONEWEB-0490             
1 54113U 22138A   24302.07734009  .00000127  00000+0  28587-3 0  9993
2 54113  87.9161  63.7014 0001780  94.9554 265.1782 13.19723590 98942
ONEWEB-0492             
1 54114U 22138B   24301.79935760  .00000052  00000+0  97904-4 0  9996
2 54114  87.9165  63.7669 0001690  89.2658 270.8668 13.19725733 98043
ONEWEB-0495             
1 54115U 22138C   24301.77720537  .00003033  00000+0  75379-2 0  9991
2 54115  87.9143  63.7836 0002487  96.4354 263.7062 13.19748888 98027
ONEWEB-0497             
1 54116U 22138D   24302.32058214  .00000115  00000+0  25597-3 0  9996
2 54116  87.9163  63.6570 0001690  94.5685 265.5641 13.19723076 98952
ONEWEB-0499             
1 54117U 22138E   24301.77247862  .00000151  00000+0  34565-3 0  9999
2 54117  87.9164  63.7736 0001907 110.6022 249.5315 13.19728300 98028
ONEWEB-0500             
1 54118U 22138F   24302.30636304  .00000138  00000+0  31138-3 0  9991
2 54118  87.9165  63.6592 0001613  95.7363 264.3954 13.19724837 98973
ONEWEB-0501             
1 54119U 22138G   24302.33637336 -.00002251  00000+0 -56561-2 0  9997
2 54119  87.9161  63.6493 0002001 100.0827 260.0532 13.19738859 98959
ONEWEB-0502             
1 54120U 22138H   24302.24635550  .00000168  00000+0  38735-3 0  9992
2 54120  87.9161  63.6552 0001945  99.6275 260.5077 13.19725323 98965
ONEWEB-0503             
1 54121U 22138J   24301.78038485  .00000139  00000+0  31547-3 0  9997
2 54121  87.9158  63.7541 0001576 111.1631 248.9670 13.19727942 98022
ONEWEB-0504             
1 54122U 22138K   24301.76775580  .00000048  00000+0  88765-4 0  9994
2 54122  87.9163  63.7655 0001936 104.6150 255.5197 13.19723941 98032
ONEWEB-0505             
1 54123U 22138L   24301.76460177  .00000093  00000+0  19946-3 0  9992
2 54123  87.9159  63.7593 0002328 100.2177 259.9218 13.19723541 98012
ONEWEB-0506             
1 54124U 22138M   24302.27004131  .00000109  00000+0  23949-3 0  9990
2 54124  87.9159  63.6552 0001838  96.6845 263.4496 13.19724210 98946
ONEWEB-0507             
1 54125U 22138N   24301.75985822  .00000124  00000+0  27747-3 0  9995
2 54125  87.9169  63.7898 0001884  94.0974 266.0374 13.19723446 98054
ONEWEB-0508             
1 54126U 22138P   24301.75669674  .00000132  00000+0  29688-3 0  9995
2 54126  87.9166  63.7799 0002061  91.4457 268.6912 13.19723439 98033
ONEWEB-0509             
1 54127U 22138Q   24301.57978436  .00000046  00000+0  82507-4 0  9999
2 54127  87.9159  63.7928 0001757  98.8852 261.2480 13.19727556 97987
ONEWEB-0510             
1 54128U 22138R   24302.24373495  .00000074  00000+0  14930-3 0  9994
2 54128  87.9295  33.1800 0001503  92.8190 267.3115 13.20772661101388
ONEWEB-0511             
1 54129U 22138S   24301.72826634 -.00000024  00000+0 -91079-4 0  9992
2 54129  87.9160  63.7670 0001721 109.6661 250.4657 13.19722789 98031
ONEWEB-0512             
1 54130U 22138T   24302.09946396  .00000147  00000+0  33542-3 0  9997
2 54130  87.9170  63.7197 0002088 100.2504 259.8865 13.19724331 98925
ONEWEB-0513             
1 54131U 22138U   24301.76695968  .00000111  00000+0  24460-3 0  9997
2 54131  87.9167  63.7776 0002200 105.4240 254.7135 13.19727592 97896
ONEWEB-0514             
1 54132U 22138V   24302.03942998  .00000031  00000+0  45778-4 0  9994
2 54132  87.9161  63.7134 0001614 100.1582 259.9732 13.19723533 98935
ONEWEB-0515             
1 54133U 22138W   24302.53419973  .00001960  00000+0  47928-2 0  9991
2 54133  87.9312  33.1025 0001792  87.8150 272.3188 13.20705913101419
ONEWEB-0516             
1 54134U 22138X   24302.31743246  .00000149  00000+0  33896-3 0  9999
2 54134  87.9169  63.6781 0001662  93.7556 266.3767 13.19725051 98974
ONEWEB-0517             
1 54135U 22138Y   24301.76617482  .00000177  00000+0  41009-3 0  9996
2 54135  87.9161  63.7637 0001669 111.4471 248.6840 13.19723979 98038
ONEWEB-0518             
1 54136U 22138Z   24301.78512542  .00000041  00000+0  70573-4 0  9999
2 54136  87.9168  63.7815 0001679 101.2212 258.9109 13.19723688 98034
ONEWEB-0519             
1 54137U 22138AA  24302.56858511  .00000091  00000+0  19375-3 0  9993
2 54137  87.9161  63.5983 0001640 106.6837 253.4476 13.19725617 99012
ONEWEB-0520             
1 54138U 22138AB  24301.76932613  .00000094  00000+0  20335-3 0  9992
2 54138  87.9160  63.7610 0002052  94.5539 265.5828 13.19724111 98026
ONEWEB-0521             
1 54139U 22138AC  24301.72670624 -.00000135  00000+0 -37045-3 0  9994
2 54139  87.9158  63.7599 0001449 106.3140 253.8152 13.19725625 97962
ONEWEB-0522             
1 54140U 22138AD  24302.31269420  .00000132  00000+0  29763-3 0  9993
2 54140  87.9160  63.6452 0001684  94.0458 266.0867 13.19724116 98953
ONEWEB-0523             
1 54141U 22138AE  24302.21847628  .00000138  00000+0  30745-3 0  9993
2 54141  87.9294  33.1922 0000783 101.7572 258.3649 13.20767743101376
ONEWEB-0524             
1 54142U 22138AF  24302.28318663  .00000179  00000+0  40821-3 0  9994
2 54142  87.9296  33.1820 0001539  63.7035 296.4257 13.20774872101387
ONEWEB-0525             
1 54143U 22138AG  24301.72510395  .00000134  00000+0  30337-3 0  9991
2 54143  87.9166  63.7745 0001935  98.2335 261.9017 13.19723056 98028
ONEWEB-0526             
1 54144U 22138AH  24301.75829141  .00000065  00000+0  12977-3 0  9990
2 54144  87.9159  63.7610 0001761  95.6280 264.5054 13.19724856 98006
ONEWEB-0529             
1 54145U 22138AJ  24301.76142610  .00000098  00000+0  21308-3 0  9995
2 54145  87.9169  63.7853 0001958  95.8333 264.3023 13.19723237 98024
ONEWEB-0531             
1 54146U 22138AK  24302.19323933  .00000151  00000+0  33859-3 0  9997
2 54146  87.9297  33.1922 0000797  75.6097 284.5125 13.20771012101374
ONEWEB-0535             
1 54147U 22138AL  24302.32531856  .00000008  00000+0 -12626-4 0  9990
2 54147  87.9160  63.6453 0001332  94.6864 265.4421 13.19723033 98987
ONEWEB-0536             
1 54148U 22138AM  24302.55937605  .00000027  00000+0  34214-4 0  9995
2 54148  87.9295  33.1673 0000800 119.6376 240.4837 13.20774454101410
ONEWEB-0527             
1 54642U 22166A   24302.45659849  .00000027  00000+0  32875-4 0  9996
2 54642  87.9350   2.8533 0001853  94.7549 265.3796 13.21823778 93159
ONEWEB-0528             
1 54643U 22166B   24302.16012705  .00000075  00000+0  15007-3 0  9999
2 54643  87.9352   2.9036 0001961  96.7602 263.3755 13.21824390 93124
ONEWEB-0539             
1 54644U 22166C   24301.89359532  .00000134  00000+0  29208-3 0  9995
2 54644  87.9352   2.9602 0001920 104.8092 255.3254 13.21829092 93087
ONEWEB-0540             
1 54645U 22166D   24302.11517143  .00000130  00000+0  28311-3 0  9996
2 54645  87.9348   2.9269 0001981 104.9603 255.1751 13.21828507 93123
ONEWEB-0542             
1 54646U 22166E   24302.13014856  .00000042  00000+0  69951-4 0  9990
2 54646  87.9354   2.9123 0001756 113.5554 246.5764 13.21827361 93126
ONEWEB-0545             
1 54647U 22166F   24302.47551349 -.00000001  00000+0 -33182-4 0  9995
2 54647  87.9342   2.8516 0002162 110.1229 250.0138 13.21828974 93141
ONEWEB-0580             
1 54648U 22166G   24302.14593151  .00000078  00000+0  15820-3 0  9997
2 54648  87.9350   2.8956 0001789 113.2904 246.8418 13.21824963 93134
ONEWEB-0582             
1 54649U 22166H   24302.18852203  .00000111  00000+0  23730-3 0  9995
2 54649  87.9345   2.9204 0001685 118.7510 241.3794 13.21826767 93124
ONEWEB-0583             
1 54650U 22166J   24302.12384515  .00000054  00000+0  99546-4 0  9992
2 54650  87.9345   2.9314 0001898 100.0241 260.1107 13.21823136 93134
ONEWEB-0584             
1 54651U 22166K   24302.44713538  .00000011  00000+0 -43971-5 0  9995
2 54651  87.9352   2.8396 0001665 113.7357 246.3952 13.21823736 93155
ONEWEB-0585             
1 54652U 22166L   24302.47236096  .00000004  00000+0 -22144-4 0  9998
2 54652  87.9340   2.8458 0001798  95.9797 264.1541 13.21826183 93160
ONEWEB-0586             
1 54653U 22166M   24302.40928104  .00000050  00000+0  89331-4 0  9991
2 54653  87.9349   2.8652 0001897 106.6427 253.4915 13.21826160 93156
ONEWEB-0587             
1 54654U 22166N   24302.19167040  .00000102  00000+0  21583-3 0  9994
2 54654  87.9346   2.8617 0001886  91.4262 268.7088 13.21825834 93271
